*******************************************************************************
Ephemeris / WWW_USER Mon Mar 24 07:22:37 2025 Pasadena, USA      / Horizons    
*******************************************************************************
Target body name: (2018 PM20)                     {source: JPL#2}
Center body name: Earth (399)                     {source: DE441}
Center-site name: Mauna Kea
*******************************************************************************
Start time      : A.D. 2018-Sep-26 04:24:00.0000 UT      
Stop  time      : A.D. 2018-Sep-26 16:02:00.0000 UT      
Step-size       : 1 minutes
*******************************************************************************
Target pole/equ : undefined
Target radii    : undefined                                                    
Center geodetic : 204.5278, 19.8260847, 4.21024   {E-lon(deg),Lat(deg),Alt(km)}
Center cylindric: 204.5278, 6006.35451, 2151.0229 {E-lon(deg),Dxy(km),Dz(km)}
Center pole/equ : ITRF93                          {East-longitude positive}
Center radii    : 6378.137, 6378.137, 6356.752 km {Equator_a, b, pole_c}       
Target primary  : Sun
Vis. interferer : MOON (R_eq= 1737.400) km        {source: DE441}
Rel. light bend : Sun                             {source: DE441}
Rel. lght bnd GM: 1.3271E+11 km^3/s^2                                          
Small-body perts: Yes                             {source: SB441-N16}
Atmos refraction: NO (AIRLESS)
RA format       : HMS
Time format     : CAL 
Calendar mode   : Mixed Julian/Gregorian
RTS-only print  : NO       
EOP file        : eop.250321.p250617                                           
EOP coverage    : DATA-BASED 1962-JAN-20 TO 2025-MAR-21. PREDICTS-> 2025-JUN-16
Units conversion: 1 au= 149597870.700 km, c= 299792.458 km/s, 1 day= 86400.0 s 
Table cut-offs 1: Elevation (-90.0deg=NO ),Airmass (>38.000=NO), Daylight (YES)
Table cut-offs 2: Solar elongation (  0.0,180.0=NO ),Local Hour Angle( 0.0=NO )
Table cut-offs 3: RA/DEC angular rate (     0.0=NO )                           
*******************************************************************************
Initial IAU76/J2000 heliocentric ecliptic osculating elements (au, days, deg.):
  EPOCH=  2458343.5 ! 2018-Aug-13.00 (TDB)         Residual RMS= .089003       
   EC= .5103595829140648   QR= .9783824475456468   TP= 2458372.5495769856      
   OM= 141.729241004527    W=  213.3086535448706   IN= 3.923256746335003       
  Equivalent ICRF heliocentric cartesian coordinates (au, au/d):
   X= 8.000585561647119E-01  Y=-6.125483166279821E-01  Z=-2.634816273742420E-01
  VX= 9.656077190407949E-03 VY= 1.708944028933422E-02 VZ= 5.904161592396531E-03
Asteroid physical parameters (km, seconds, rotational period in hours):        
   GM= n.a.                RAD= n.a.               ROTPER= n.a.                
   H= 26.3                 G= .150                 B-V= n.a.                   
                           ALBEDO= n.a.            STYP= n.a.                  
*******************************************************************************
 Date__(UT)__HR:MN     R.A._________(ICRF)_________DEC
******************************************************
$$SOE
 2018-Sep-26 06:27  m  06 42 01.415286 +07 16 20.12092
 2018-Sep-26 06:28  m  06 42 01.471719 +07 16 20.17554
 2018-Sep-26 06:29  m  06 42 01.528128 +07 16 20.23025
 2018-Sep-26 06:30  m  06 42 01.584512 +07 16 20.28504
 2018-Sep-26 06:31  m  06 42 01.640871 +07 16 20.33993
 2018-Sep-26 06:32  m  06 42 01.697204 +07 16 20.39490
 2018-Sep-26 06:33  m  06 42 01.753512 +07 16 20.44996
 2018-Sep-26 06:34  m  06 42 01.809794 +07 16 20.50511
 2018-Sep-26 06:35  m  06 42 01.866050 +07 16 20.56034
 2018-Sep-26 06:36  m  06 42 01.922279 +07 16 20.61567
 2018-Sep-26 06:37  m  06 42 01.978482 +07 16 20.67108
 2018-Sep-26 06:38  m  06 42 02.034658 +07 16 20.72657
 2018-Sep-26 06:39  m  06 42 02.090808 +07 16 20.78215
 2018-Sep-26 06:40  m  06 42 02.146930 +07 16 20.83782
 2018-Sep-26 06:41  m  06 42 02.203025 +07 16 20.89358
 2018-Sep-26 06:42  m  06 42 02.259093 +07 16 20.94942
 2018-Sep-26 06:43  m  06 42 02.315132 +07 16 21.00534
 2018-Sep-26 06:44  m  06 42 02.371144 +07 16 21.06135
 2018-Sep-26 06:45  m  06 42 02.427128 +07 16 21.11745
 2018-Sep-26 06:46  m  06 42 02.483083 +07 16 21.17363
 2018-Sep-26 06:47  m  06 42 02.539010 +07 16 21.22989
 2018-Sep-26 06:48  m  06 42 02.594908 +07 16 21.28624
 2018-Sep-26 06:49  m  06 42 02.650778 +07 16 21.34267
 2018-Sep-26 06:50  m  06 42 02.706618 +07 16 21.39919
 2018-Sep-26 06:51  m  06 42 02.762429 +07 16 21.45579
 2018-Sep-26 06:52  m  06 42 02.818210 +07 16 21.51248
 2018-Sep-26 06:53  m  06 42 02.873961 +07 16 21.56924
 2018-Sep-26 06:54  m  06 42 02.929683 +07 16 21.62609
 2018-Sep-26 06:55  m  06 42 02.985375 +07 16 21.68303
 2018-Sep-26 06:56  m  06 42 03.041036 +07 16 21.74004
 2018-Sep-26 06:57  m  06 42 03.096666 +07 16 21.79714
 2018-Sep-26 06:58  m  06 42 03.152266 +07 16 21.85432
 2018-Sep-26 06:59  m  06 42 03.207835 +07 16 21.91158
 2018-Sep-26 07:00  m  06 42 03.263373 +07 16 21.96892
 2018-Sep-26 07:01  m  06 42 03.318880 +07 16 22.02635
 2018-Sep-26 07:02  m  06 42 03.374355 +07 16 22.08385
 2018-Sep-26 07:03  m  06 42 03.429798 +07 16 22.14144
 2018-Sep-26 07:04  m  06 42 03.485210 +07 16 22.19910
 2018-Sep-26 07:05  m  06 42 03.540590 +07 16 22.25685
 2018-Sep-26 07:06  m  06 42 03.595937 +07 16 22.31468
 2018-Sep-26 07:07  m  06 42 03.651252 +07 16 22.37258
 2018-Sep-26 07:08  m  06 42 03.706534 +07 16 22.43057
 2018-Sep-26 07:09  m  06 42 03.761783 +07 16 22.48863
 2018-Sep-26 07:10  m  06 42 03.816999 +07 16 22.54677
 2018-Sep-26 07:11  m  06 42 03.872182 +07 16 22.60500
 2018-Sep-26 07:12  m  06 42 03.927332 +07 16 22.66329
 2018-Sep-26 07:13  m  06 42 03.982448 +07 16 22.72167
 2018-Sep-26 07:14  m  06 42 04.037531 +07 16 22.78013
 2018-Sep-26 07:15  m  06 42 04.092579 +07 16 22.83866
 2018-Sep-26 07:16  m  06 42 04.147593 +07 16 22.89727
 2018-Sep-26 07:17  m  06 42 04.202573 +07 16 22.95596
 2018-Sep-26 07:18  m  06 42 04.257518 +07 16 23.01472
 2018-Sep-26 07:19  m  06 42 04.312429 +07 16 23.07356
 2018-Sep-26 07:20  m  06 42 04.367305 +07 16 23.13248
 2018-Sep-26 07:21  m  06 42 04.422146 +07 16 23.19147
 2018-Sep-26 07:22  m  06 42 04.476951 +07 16 23.25054
 2018-Sep-26 07:23  m  06 42 04.531721 +07 16 23.30968
 2018-Sep-26 07:24  m  06 42 04.586456 +07 16 23.36890
 2018-Sep-26 07:25  m  06 42 04.641155 +07 16 23.42819
 2018-Sep-26 07:26  m  06 42 04.695818 +07 16 23.48756
 2018-Sep-26 07:27  m  06 42 04.750444 +07 16 23.54700
 2018-Sep-26 07:28  m  06 42 04.805035 +07 16 23.60651
 2018-Sep-26 07:29  m  06 42 04.859588 +07 16 23.66610
 2018-Sep-26 07:30  m  06 42 04.914106 +07 16 23.72576
 2018-Sep-26 07:31  m  06 42 04.968586 +07 16 23.78550
 2018-Sep-26 07:32  m  06 42 05.023029 +07 16 23.84530
 2018-Sep-26 07:33  m  06 42 05.077435 +07 16 23.90518
 2018-Sep-26 07:34  m  06 42 05.131804 +07 16 23.96513
 2018-Sep-26 07:35  m  06 42 05.186135 +07 16 24.02515
 2018-Sep-26 07:36  m  06 42 05.240429 +07 16 24.08525
 2018-Sep-26 07:37  m  06 42 05.294684 +07 16 24.14541
 2018-Sep-26 07:38  m  06 42 05.348902 +07 16 24.20565
 2018-Sep-26 07:39  m  06 42 05.403081 +07 16 24.26596
 2018-Sep-26 07:40  m  06 42 05.457222 +07 16 24.32633
 2018-Sep-26 07:41  m  06 42 05.511325 +07 16 24.38678
 2018-Sep-26 07:42  m  06 42 05.565388 +07 16 24.44729
 2018-Sep-26 07:43  m  06 42 05.619413 +07 16 24.50788
 2018-Sep-26 07:44  m  06 42 05.673399 +07 16 24.56853
 2018-Sep-26 07:45  m  06 42 05.727346 +07 16 24.62925
 2018-Sep-26 07:46  m  06 42 05.781253 +07 16 24.69004
 2018-Sep-26 07:47  m  06 42 05.835120 +07 16 24.75090
 2018-Sep-26 07:48  m  06 42 05.888948 +07 16 24.81183
 2018-Sep-26 07:49  m  06 42 05.942736 +07 16 24.87282
 2018-Sep-26 07:50  m  06 42 05.996484 +07 16 24.93388
 2018-Sep-26 07:51  m  06 42 06.050192 +07 16 24.99501
 2018-Sep-26 07:52  m  06 42 06.103859 +07 16 25.05620
 2018-Sep-26 07:53  m  06 42 06.157486 +07 16 25.11746
 2018-Sep-26 07:54  m  06 42 06.211072 +07 16 25.17879
 2018-Sep-26 07:55  m  06 42 06.264618 +07 16 25.24018
 2018-Sep-26 07:56  m  06 42 06.318122 +07 16 25.30163
 2018-Sep-26 07:57  m  06 42 06.371585 +07 16 25.36315
 2018-Sep-26 07:58  m  06 42 06.425007 +07 16 25.42474
 2018-Sep-26 07:59  m  06 42 06.478388 +07 16 25.48638
 2018-Sep-26 08:00  m  06 42 06.531726 +07 16 25.54810
 2018-Sep-26 08:01  m  06 42 06.585023 +07 16 25.60987
 2018-Sep-26 08:02  m  06 42 06.638279 +07 16 25.67171
 2018-Sep-26 08:03  m  06 42 06.691492 +07 16 25.73361
 2018-Sep-26 08:04  m  06 42 06.744662 +07 16 25.79557
 2018-Sep-26 08:05  m  06 42 06.797791 +07 16 25.85760
 2018-Sep-26 08:06  m  06 42 06.850877 +07 16 25.91968
 2018-Sep-26 08:07  m  06 42 06.903920 +07 16 25.98183
 2018-Sep-26 08:08  m  06 42 06.956921 +07 16 26.04404
 2018-Sep-26 08:09  m  06 42 07.009878 +07 16 26.10631
 2018-Sep-26 08:10  m  06 42 07.062792 +07 16 26.16864
 2018-Sep-26 08:11  m  06 42 07.115664 +07 16 26.23103
 2018-Sep-26 08:12  m  06 42 07.168491 +07 16 26.29348
 2018-Sep-26 08:13  m  06 42 07.221275 +07 16 26.35598
 2018-Sep-26 08:14  m  06 42 07.274016 +07 16 26.41855
 2018-Sep-26 08:15  m  06 42 07.326713 +07 16 26.48118
 2018-Sep-26 08:16  m  06 42 07.379365 +07 16 26.54386
 2018-Sep-26 08:17  m  06 42 07.431974 +07 16 26.60660
 2018-Sep-26 08:18  m  06 42 07.484538 +07 16 26.66940
 2018-Sep-26 08:19  m  06 42 07.537058 +07 16 26.73225
 2018-Sep-26 08:20  m  06 42 07.589533 +07 16 26.79517
 2018-Sep-26 08:21  m  06 42 07.641964 +07 16 26.85813
 2018-Sep-26 08:22  m  06 42 07.694350 +07 16 26.92116
 2018-Sep-26 08:23  m  06 42 07.746691 +07 16 26.98424
 2018-Sep-26 08:24  m  06 42 07.798987 +07 16 27.04737
 2018-Sep-26 08:25  m  06 42 07.851238 +07 16 27.11056
 2018-Sep-26 08:26  m  06 42 07.903443 +07 16 27.17381
 2018-Sep-26 08:27  m  06 42 07.955603 +07 16 27.23710
 2018-Sep-26 08:28  m  06 42 08.007717 +07 16 27.30046
 2018-Sep-26 08:29  m  06 42 08.059786 +07 16 27.36386
